IRIDIUM 126             
1 42809U 17039G   24162.88146902  .00000196  00000+0  63052-4 0  9991
2 42809  86.3954 301.3371 0001958  89.7330 270.4091 14.34217755364411
IRIDIUM 124             
1 42810U 17039H   24162.68964656  .00000767  00000+0  22211-3 0  9990
2 42810  86.4510 238.1401 0002544 103.6915 256.4570 14.43284620368886
IRIDIUM 128             
1 42811U 17039J   24162.94197365  .00000023  00000+0  12189-5 0  9995
2 42811  86.3961 332.8423 0002073  96.4538 263.6894 14.34216324364453
IRIDIUM 100             
1 42956U 17061B   24162.89756028  .00000557  00000+0  19168-3 0  9995
2 42956  86.3960 332.8960 0001838  85.6376 274.5030 14.34215363349241
IRIDIUM 122             
1 42957U 17061C   24162.93562970  .00000537  00000+0  18471-3 0  9996
2 42957  86.3963 332.8785 0002009  90.6215 269.5211 14.34215223349250
